NORAD_CAT_ID,OBJECT_NAME,OBJECT_TYPE,EPOCH,MEAN_MOTION,ECCENTRICITY,INCLINATION,RA_OF_ASC_NODE,ARG_OF_PERICENTER,MEAN_ANOMALY,BSTAR,MEAN_MOTION_DOT,MEAN_MOTION_DDOT,TLE_LINE0,TLE_LINE1,TLE_LINE2,SEMIMAJOR_AXIS,PERIOD,APOGEE,PERIGEE,DECAYED
51736.0,STARLINK-3447,PAYLOAD,2024-06-12 14:37:43,15.08839957,0.0001269,53.2172,290.1935,90.6179,269.4959,2.7257e-05,1.46e-06,0.0,0 STARLINK-3447,1 51736U 22016Y   24164.60953231  .00000146  00000-0  27257-4 0  9997,2 51736  53.2172 290.1935 0001269  90.6179 269.4959 15.08839957128812,6917.881,95.438,540.623,538.868,0.0
51736.0,STARLINK-3447,PAYLOAD,2024-06-13 14:28:30,15.08842197,0.0001278,53.2172,285.733,89.9745,270.1394,9.6924e-05,1.255e-05,0.0,0 STARLINK-3447,1 51736U 22016Y   24165.60313328  .00001255  00000-0  96924-4 0  9994,2 51736  53.2172 285.7330 0001278  89.9745 270.1394 15.08842197127834,6917.874,95.437,540.623,538.855,0.0
51736.0,STARLINK-3447,PAYLOAD,2024-06-14 14:19:17,15.08836295,0.0001312,53.218,281.2727,102.1883,257.9256,6.3063e-05,7.16e-06,0.0,0 STARLINK-3447,1 51736U 22016Y   24166.59673558  .00000716  00000-0  63063-4 0  9996,2 51736  53.2180 281.2727 0001312 102.1883 257.9256 15.08836295127982,6917.892,95.438,540.664,538.849,0.0
51736.0,STARLINK-3447,PAYLOAD,2024-06-14 17:30:04,15.08837108,0.0001504,53.2188,280.6773,113.1039,247.0112,7.9082e-05,9.71e-06,0.0,0 STARLINK-3447,1 51736U 22016Y   24166.72921505  .00000971  00000-0  79082-4 0  9990,2 51736  53.2188 280.6773 0001504 113.1039 247.0112 15.08837108128001,6917.889,95.438,540.795,538.714,0.0
51736.0,STARLINK-3447,PAYLOAD,2024-06-15 14:10:05,15.08841973,0.000115,53.2169,276.8176,77.6592,282.4528,1.9988e-05,3e-07,0.0,0 STARLINK-3447,1 51736U 22016Y   24167.59033582  .00000030  00000-0  19988-4 0  9990,2 51736  53.2169 276.8176 0001150  77.6592 282.4528 15.08841973128132,6917.874,95.437,540.535,538.944,0.0
51736.0,STARLINK-3447,PAYLOAD,2024-06-15 17:20:51,15.08844083,0.0001036,53.2153,276.2194,80.9557,279.1552,6.8745e-05,8.07e-06,0.0,0 STARLINK-3447,1 51736U 22016Y   24167.72281341  .00000807  00000-0  68745-4 0  9990,2 51736  53.2153 276.2194 0001036  80.9557 279.1552 15.08844083128157,6917.868,95.437,540.45,539.016,0.0
51736.0,STARLINK-3447,PAYLOAD,2024-06-16 14:00:52,15.08834471,0.0001342,53.2186,272.3591,93.345,266.7696,0.00011628,1.563e-05,0.0,0 STARLINK-3447,1 51736U 22016Y   24168.58393916  .00001563  00000-0  11628-3 0  9994,2 51736  53.2186 272.3591 0001342  93.3450 266.7696 15.08834471129412,6917.897,95.438,540.691,538.834,0.0
51736.0,STARLINK-3447,PAYLOAD,2024-06-16 17:11:38,15.08840219,0.0001253,53.2168,271.7586,84.1068,276.0067,8.2841e-05,1.031e-05,0.0,0 STARLINK-3447,1 51736U 22016Y   24168.71641598  .00001031  00000-0  82841-4 0  9997,2 51736  53.2168 271.7586 0001253  84.1068 276.0067 15.08840219128303,6917.88,95.438,540.612,538.878,0.0
51736.0,STARLINK-3447,PAYLOAD,2024-06-17 13:51:39,15.08832806,0.0001225,53.2172,267.8945,96.8073,263.3059,-9.8826e-05,-1.86e-05,0.0,0 STARLINK-3447,1 51736U 22016Y   24169.57753861 -.00001860  00000-0 -98826-4 0  9991,2 51736  53.2172 267.8945 0001225  96.8073 263.3059 15.08832806128435,6917.902,95.438,540.615,538.92,0.0
51736.0,STARLINK-3447,PAYLOAD,2024-06-17 23:23:57,15.08842667,0.0001347,53.2182,266.1099,91.6298,268.4849,0.0001258,1.715e-05,0.0,0 STARLINK-3447,1 51736U 22016Y   24169.97497646  .00001715  00000-0  12580-3 0  9990,2 51736  53.2182 266.1099 0001347  91.6298 268.4849 15.08842667129626,6917.872,95.437,540.669,538.805,0.0
51736.0,STARLINK-3447,PAYLOAD,2024-06-18 13:42:26,15.08845465,0.0001337,53.2178,263.4329,89.7792,270.3353,0.00041319,6.295e-05,0.0,0 STARLINK-3447,1 51736U 22016Y   24170.57113816  .00006295  00000-0  41319-3 0  9992,2 51736  53.2178 263.4329 0001337  89.7792 270.3353 15.08845465128588,6917.864,95.437,540.654,538.804,0.0
51736.0,STARLINK-3447,PAYLOAD,2024-06-19 05:36:17,15.08832441,0.0001168,53.216,260.4594,85.1166,274.9959,-0.00010856,-2.015e-05,0.0,0 STARLINK-3447,1 51736U 22016Y   24171.23353903 -.00002015  00000-0 -10856-3 0  9999,2 51736  53.2160 260.4594 0001168  85.1166 274.9959 15.08832441129816,6917.903,95.438,540.577,538.96,0.0
51736.0,STARLINK-3447,PAYLOAD,2024-06-19 13:33:13,15.08838076,0.0001257,53.2162,258.9718,86.9019,273.2117,0.00011517,1.545e-05,0.0,0 STARLINK-3447,1 51736U 22016Y   24171.56473821  .00001545  00000-0  11517-3 0  9997,2 51736  53.2162 258.9718 0001257  86.9019 273.2117 15.08838076128731,6917.886,95.438,540.621,538.882,0.0
51736.0,STARLINK-3447,PAYLOAD,2024-06-19 18:19:22,15.08843124,0.0001227,53.2161,258.0798,85.2055,274.9077,0.00021662,3.162e-05,0.0,0 STARLINK-3447,1 51736U 22016Y   24171.76345803  .00003162  00000-0  21662-3 0  9996,2 51736  53.2161 258.0798 0001227  85.2055 274.9077 15.08843124129899,6917.871,95.437,540.585,538.887,0.0
51736.0,STARLINK-3447,PAYLOAD,2024-06-20 13:24:00,15.08846075,0.0001179,53.2164,254.5118,98.314,261.7986,0.00011078,1.476e-05,0.0,0 STARLINK-3447,1 51736U 22016Y   24172.55833774  .00001476  00000-0  11078-3 0  9999,2 51736  53.2164 254.5118 0001179  98.3140 261.7986 15.08846075128884,6917.862,95.437,540.542,538.911,0.0
51736.0,STARLINK-3447,PAYLOAD,2024-06-20 18:10:09,15.08847781,0.0001268,53.2161,253.6196,118.9137,241.1982,0.00029123,4.351e-05,0.0,0 STARLINK-3447,1 51736U 22016Y   24172.75705713  .00004351  00000-0  29123-3 0  9997,2 51736  53.2161 253.6196 0001268 118.9137 241.1982 15.08847781128918,6917.857,95.437,540.599,538.844,0.0
51736.0,STARLINK-3447,PAYLOAD,2024-06-21 05:17:51,15.08843413,0.0001257,53.216,251.5382,91.7471,268.3665,0.00025677,3.801e-05,0.0,0 STARLINK-3447,1 51736U 22016Y   24173.22073947  .00003801  00000-0  25677-3 0  9996,2 51736  53.2160 251.5382 0001257  91.7471 268.3665 15.08843413130110,6917.87,95.437,540.605,538.865,0.0
51736.0,STARLINK-3447,PAYLOAD,2024-06-21 13:14:47,15.0884317,0.0001235,53.216,250.0515,88.8368,271.2766,0.00020578,2.989e-05,0.0,0 STARLINK-3447,1 51736U 22016Y   24173.55194013  .00002989  00000-0  20578-3 0  9991,2 51736  53.2160 250.0515 0001235  88.8368 271.2766 15.08843170129034,6917.871,95.437,540.59,538.881,0.0
51736.0,STARLINK-3447,PAYLOAD,2024-06-21 16:25:33,15.08846426,0.0001232,53.2159,249.4568,88.8753,271.238,0.00024062,3.544e-05,0.0,0 STARLINK-3447,1 51736U 22016Y   24173.68441862  .00003544  00000-0  24062-3 0  9992,2 51736  53.2159 249.4568 0001232  88.8753 271.2380 15.08846426129058,6917.861,95.437,540.578,538.873,0.0
51736.0,STARLINK-3447,PAYLOAD,2024-06-22 05:08:39,15.08836495,0.0001201,53.216,247.078,89.1115,271.0014,2.1931e-05,6.1e-07,0.0,0 STARLINK-3447,1 51736U 22016Y   24174.21434256  .00000061  00000-0  21931-4 0  9995,2 51736  53.2160 247.0780 0001201  89.1115 271.0014 15.08836495130264,6917.891,95.438,540.587,538.925,0.0
51736.0,STARLINK-3447,PAYLOAD,2024-06-22 13:05:34,15.08838911,0.0001205,53.2168,245.5909,90.917,269.196,9.6808e-05,1.253e-05,0.0,0 STARLINK-3447,1 51736U 22016Y   24174.54554229  .00001253  00000-0  96808-4 0  9993,2 51736  53.2168 245.5909 0001205  90.9170 269.1960 15.08838911129185,6917.884,95.438,540.582,538.915,0.0
51736.0,STARLINK-3447,PAYLOAD,2024-06-22 16:16:20,15.08841593,0.0001205,53.2167,244.9962,90.6018,269.5112,8.609e-05,1.083e-05,0.0,0 STARLINK-3447,1 51736U 22016Y   24174.67802041  .00001083  00000-0  86090-4 0  9998,2 51736  53.2167 244.9962 0001205  90.6018 269.5112 15.08841593129200,6917.876,95.437,540.574,538.907,0.0
51736.0,STARLINK-3447,PAYLOAD,2024-06-23 12:56:21,15.08836381,0.0001196,53.2167,241.1305,85.3265,274.7864,6.6529e-05,7.71e-06,0.0,0 STARLINK-3447,1 51736U 22016Y   24175.53914274  .00000771  00000-0  66529-4 0  9994,2 51736  53.2167 241.1305 0001196  85.3265 274.7864 15.08836381130465,6917.891,95.438,540.584,538.929,0.0
51736.0,STARLINK-3447,PAYLOAD,2024-06-23 14:31:45,15.08837682,0.0001197,53.2166,240.8331,85.3861,274.7267,6.5854e-05,7.6e-06,0.0,0 STARLINK-3447,1 51736U 22016Y   24175.60538198  .00000760  00000-0  65854-4 0  9997,2 51736  53.2166 240.8331 0001197  85.3861 274.7267 15.08837682129349,6917.887,95.438,540.581,538.924,0.0
51736.0,STARLINK-3447,PAYLOAD,2024-06-23 16:07:07,15.08840133,0.0001197,53.2166,240.5357,85.5137,274.5992,7.2458e-05,8.66e-06,0.0,0 STARLINK-3447,1 51736U 22016Y   24175.67162022  .00000866  00000-0  72458-4 0  9998,2 51736  53.2166 240.5357 0001197  85.5137 274.5992 15.08840133129351,6917.88,95.438,540.573,538.917,0.0
51736.0,STARLINK-3447,PAYLOAD,2024-06-24 14:22:31,15.08839485,0.0001189,53.2165,236.3726,90.4779,269.6349,0.00011992,1.621e-05,0.0,0 STARLINK-3447,1 51736U 22016Y   24176.59898042  .00001621  00000-0  11992-3 0  9993,2 51736  53.2165 236.3726 0001189  90.4779 269.6349 15.08839485129495,6917.882,95.438,540.569,538.924,0.0
51736.0,STARLINK-3447,PAYLOAD,2024-06-24 15:57:54,15.08842079,0.0001189,53.2165,236.0751,90.7626,269.3502,0.00011715,1.577e-05,0.0,0 STARLINK-3447,1 51736U 22016Y   24176.66521884  .00001577  00000-0  11715-3 0  9991,2 51736  53.2165 236.0751 0001189  90.7626 269.3502 15.08842079130633,6917.874,95.437,540.562,538.916,0.0
51736.0,STARLINK-3447,PAYLOAD,2024-06-25 11:02:33,15.08835938,0.0001189,53.2164,232.5068,91.1783,268.9345,8.5667e-05,1.076e-05,0.0,0 STARLINK-3447,1 51736U 22016Y   24177.46010477  .00001076  00000-0  85667-4 0  9993,2 51736  53.2164 232.5068 0001189  91.1783 268.9345 15.08835938130752,6917.893,95.438,540.58,538.935,0.0
51736.0,STARLINK-3447,PAYLOAD,2024-06-26 10:53:19,15.08840762,0.0001197,53.2162,228.0462,92.3509,267.762,8.8387e-05,1.119e-05,0.0,0 STARLINK-3447,1 51736U 22016Y   24178.45370247  .00001119  00000-0  88387-4 0  9997,2 51736  53.2162 228.0462 0001197  92.3509 267.7620 15.08840762129770,6917.878,95.438,540.571,538.915,0.0
51736.0,STARLINK-3447,PAYLOAD,2024-06-27 10:44:06,15.08841905,0.0001316,53.2165,223.5853,87.3351,272.7792,6.6158e-05,7.65e-06,0.0,0 STARLINK-3447,1 51736U 22016Y   24179.44730292  .00000765  00000-0  66158-4 0  9995,2 51736  53.2165 223.5853 0001316  87.3351 272.7792 15.08841905131059,6917.875,95.437,540.65,538.829,0.0
